{"fetched_at":"2026-07-20T18:29:43.706Z","source":"https://celestrak.org/NORAD/elements/gp.php?NAME=SENTINEL&FORMAT=JSON","constellation":"sentinel-2","records":[{"OBJECT_NAME":"SENTINEL-2A","OBJECT_ID":"2015-028A","EPOCH":"2026-07-20T06:59:56.823360","CLASSIFICATION_TYPE":"U","MEAN_MOTION":14.30814761,"ECCENTRICITY":0.0001304,"INCLINATION":98.5669,"RA_OF_ASC_NODE":275.6716,"ARG_OF_PERICENTER":97.2207,"MEAN_ANOMALY":262.9124,"EPHEMERIS_TYPE":0,"NORAD_CAT_ID":40697,"ELEMENT_SET_NO":999,"REV_AT_EPOCH":57846,"BSTAR":-0.000056249837,"MEAN_MOTION_DOT":-0.00000191,"MEAN_MOTION_DDOT":0},{"OBJECT_NAME":"SENTINEL-2B","OBJECT_ID":"2017-013A","EPOCH":"2026-07-20T06:49:35.455296","CLASSIFICATION_TYPE":"U","MEAN_MOTION":14.3081531,"ECCENTRICITY":0.00012219,"INCLINATION":98.5677,"RA_OF_ASC_NODE":275.5901,"ARG_OF_PERICENTER":95.0756,"MEAN_ANOMALY":265.0567,"EPHEMERIS_TYPE":0,"NORAD_CAT_ID":42063,"ELEMENT_SET_NO":999,"REV_AT_EPOCH":48937,"BSTAR":-0.000070687071,"MEAN_MOTION_DOT":-0.00000229,"MEAN_MOTION_DDOT":0},{"OBJECT_NAME":"SENTINEL-2C","OBJECT_ID":"2024-157A","EPOCH":"2026-07-20T04:18:33.751584","CLASSIFICATION_TYPE":"U","MEAN_MOTION":14.30816557,"ECCENTRICITY":0.00010283,"INCLINATION":98.5681,"RA_OF_ASC_NODE":275.4927,"ARG_OF_PERICENTER":106.0889,"MEAN_ANOMALY":254.0407,"EPHEMERIS_TYPE":0,"NORAD_CAT_ID":60989,"ELEMENT_SET_NO":999,"REV_AT_EPOCH":9770,"BSTAR":0.000032384356,"MEAN_MOTION_DOT":4.1e-7,"MEAN_MOTION_DDOT":0}]}
